{
  "type": "FeatureCollection",
  "features": [
    {
      "type": "Feature",
      "properties": {
        "norad_id": 36036,
        "name": "SMOS",
        "group": "resource",
        "lat": 61.14279994448648,
        "lon": 159.03966832149982,
        "alt_km": 752.6371842611525,
        "timestamp": "2025-12-15T15:53:19.535138+00:00",
        "meta_object_name": "SMOS",
        "meta_object_id": "2009-059A",
        "meta_epoch": "2025-12-14T17:55:02.589600",
        "meta_mean_motion": 14.39742979,
        "meta_eccentricity": 0.00011,
        "meta_inclination": 98.438,
        "meta_ra_of_asc_node": 173.7653,
        "meta_arg_of_pericenter": 84.0802,
        "meta_mean_anomaly": 276.0512,
        "meta_ephemeris_type": 0,
        "meta_classification_type": "U",
        "meta_norad_cat_id": 36036,
        "meta_element_set_no": 999,
        "meta_rev_at_epoch": 84691,
        "meta_bstar": 0.00015675625,
        "meta_mean_motion_dot": 4.48e-06,
        "meta_mean_motion_ddot": 0,
        "tle_line1": "1 36036U 09059A   25348.74655775  .00000448  00000+0  15676-3 0  9992",
        "tle_line2": "2 36036  98.4380 173.7653 0001100  84.0802 276.0512 14.39742979846914"
      },
      "geometry": {
        "type": "Point",
        "coordinates": [
          159.03966832149982,
          61.14279994448648
        ]
      }
    },
    {
      "type": "Feature",
      "properties": {
        "norad_id": 36110,
        "name": "YAOGAN-7",
        "group": "resource",
        "lat": -71.80810147676486,
        "lon": -103.15140913149354,
        "alt_km": 627.9542315355502,
        "timestamp": "2025-12-15T15:53:19.535147+00:00",
        "meta_object_name": "YAOGAN-7",
        "meta_object_id": "2009-069A",
        "meta_epoch": "2025-12-14T22:20:40.565184",
        "meta_mean_motion": 14.7773545,
        "meta_eccentricity": 0.00233353,
        "meta_inclination": 98.0299,
        "meta_ra_of_asc_node": 230.6802,
        "meta_arg_of_pericenter": 273.8152,
        "meta_mean_anomaly": 86.039,
        "meta_ephemeris_type": 0,
        "meta_classification_type": "U",
        "meta_norad_cat_id": 36110,
        "meta_element_set_no": 999,
        "meta_rev_at_epoch": 86241,
        "meta_bstar": 0.0001002831,
        "meta_mean_motion_dot": 6.69e-06,
        "meta_mean_motion_ddot": 0,
        "tle_line1": "1 36110U 09069A   25348.93102506  .00000669  00000+0  10028-3 0  9997",
        "tle_line2": "2 36110  98.0299 230.6802 0023335 273.8152  86.0390 14.77735450862415"
      },
      "geometry": {
        "type": "Point",
        "coordinates": [
          -103.15140913149354,
          -71.80810147676486
        ]
      }
    },
    {
      "type": "Feature",
      "properties": {
        "norad_id": 36605,
        "name": "TANDEM-X",
        "group": "resource",
        "lat": -65.94654387383689,
        "lon": 157.964120600528,
        "alt_km": 516.9310480182539,
        "timestamp": "2025-12-15T15:53:19.535156+00:00",
        "meta_object_name": "TANDEM-X",
        "meta_object_id": "2010-030A",
        "meta_epoch": "2025-12-14T15:05:32.230464",
        "meta_mean_motion": 15.19156095,
        "meta_eccentricity": 0.00019257,
        "meta_inclination": 97.4454,
        "meta_ra_of_asc_node": 353.9828,
        "meta_arg_of_pericenter": 83.4847,
        "meta_mean_anomaly": 276.6607,
        "meta_ephemeris_type": 0,
        "meta_classification_type": "U",
        "meta_norad_cat_id": 36605,
        "meta_element_set_no": 999,
        "meta_rev_at_epoch": 85862,
        "meta_bstar": 9.6223592e-05,
        "meta_mean_motion_dot": 1.954e-05,
        "meta_mean_motion_ddot": 0,
        "tle_line1": "1 36605U 10030A   25348.62884526  .00001954  00000+0  96224-4 0  9992",
        "tle_line2": "2 36605  97.4454 353.9828 0001925  83.4847 276.6607 15.19156095858629"
      },
      "geometry": {
        "type": "Point",
        "coordinates": [
          157.964120600528,
          -65.94654387383689
        ]
      }
    },
    {
      "type": "Feature",
      "properties": {
        "norad_id": 36795,
        "name": "CARTOSAT-2B",
        "group": "resource",
        "lat": -43.762176918717756,
        "lon": -148.93149371264678,
        "alt_km": 648.4199847820055,
        "timestamp": "2025-12-15T15:53:19.535166+00:00",
        "meta_object_name": "CARTOSAT-2B",
        "meta_object_id": "2010-035A",
        "meta_epoch": "2025-12-14T22:38:19.748832",
        "meta_mean_motion": 14.78727798,
        "meta_eccentricity": 0.00130225,
        "meta_inclination": 97.7856,
        "meta_ra_of_asc_node": 37.9023,
        "meta_arg_of_pericenter": 69.8892,
        "meta_mean_anomaly": 290.372,
        "meta_ephemeris_type": 0,
        "meta_classification_type": "U",
        "meta_norad_cat_id": 36795,
        "meta_element_set_no": 999,
        "meta_rev_at_epoch": 83262,
        "meta_bstar": 9.9384377e-05,
        "meta_mean_motion_dot": 6.8e-06,
        "meta_mean_motion_ddot": 0,
        "tle_line1": "1 36795U 10035A   25348.94328413  .00000680  00000+0  99384-4 0  9995",
        "tle_line2": "2 36795  97.7856  37.9023 0013022  69.8892 290.3720 14.78727798832622"
      },
      "geometry": {
        "type": "Point",
        "coordinates": [
          -148.93149371264678,
          -43.762176918717756
        ]
      }
    },
    {
      "type": "Feature",
      "properties": {
        "norad_id": 36834,
        "name": "YAOGAN-10",
        "group": "resource",
        "lat": 5.983817345704391,
        "lon": 8.62561892685833,
        "alt_km": 616.7133209067752,
        "timestamp": "2025-12-15T15:53:19.535175+00:00",
        "meta_object_name": "YAOGAN-10",
        "meta_object_id": "2010-038A",
        "meta_epoch": "2025-12-14T23:50:16.600416",
        "meta_mean_motion": 14.84616711,
        "meta_eccentricity": 0.00013827,
        "meta_inclination": 97.9148,
        "meta_ra_of_asc_node": 8.7973,
        "meta_arg_of_pericenter": 81.3202,
        "meta_mean_anomaly": 312.6424,
        "meta_ephemeris_type": 0,
        "meta_classification_type": "U",
        "meta_norad_cat_id": 36834,
        "meta_element_set_no": 999,
        "meta_rev_at_epoch": 82987,
        "meta_bstar": 0.0001656195,
        "meta_mean_motion_dot": 1.346e-05,
        "meta_mean_motion_ddot": 0,
        "tle_line1": "1 36834U 10038A   25348.99324769  .00001346  00000+0  16562-3 0  9993",
        "tle_line2": "2 36834  97.9148   8.7973 0001382  81.3202 312.6424 14.84616711829873"
      },
      "geometry": {
        "type": "Point",
        "coordinates": [
          8.62561892685833,
          5.983817345704391
        ]
      }
    },
    {
      "type": "Feature",
      "properties": {
        "norad_id": 37216,
        "name": "COSMO-SKYMED 4",
        "group": "resource",
        "lat": -79.79633278745557,
        "lon": -59.37108808439088,
        "alt_km": 630.8573794504546,
        "timestamp": "2025-12-15T15:53:19.535187+00:00",
        "meta_object_name": "COSMO-SKYMED 4",
        "meta_object_id": "2010-060A",
        "meta_epoch": "2025-12-14T22:30:03.227904",
        "meta_mean_motion": 14.82149135,
        "meta_eccentricity": 0.00013792,
        "meta_inclination": 97.8807,
        "meta_ra_of_asc_node": 170.2275,
        "meta_arg_of_pericenter": 82.4751,
        "meta_mean_anomaly": 277.6619,
        "meta_ephemeris_type": 0,
        "meta_classification_type": "U",
        "meta_norad_cat_id": 37216,
        "meta_element_set_no": 999,
        "meta_rev_at_epoch": 81727,
        "meta_bstar": 0.00013294921,
        "meta_mean_motion_dot": 1.006e-05,
        "meta_mean_motion_ddot": 0,
        "tle_line1": "1 37216U 10060A   25348.93753736  .00001006  00000+0  13295-3 0  9990",
        "tle_line2": "2 37216  97.8807 170.2275 0001379  82.4751 277.6619 14.82149135817272"
      },
      "geometry": {
        "type": "Point",
        "coordinates": [
          -59.37108808439088,
          -79.79633278745557
        ]
      }
    },
    {
      "type": "Feature",
      "properties": {
        "norad_id": 37387,
        "name": "RESOURCESAT-2",
        "group": "resource",
        "lat": -46.94681376648535,
        "lon": 62.73106774194231,
        "alt_km": 826.0929855288668,
        "timestamp": "2025-12-15T15:53:19.535201+00:00",
        "meta_object_name": "RESOURCESAT-2",
        "meta_object_id": "2011-015A",
        "meta_epoch": "2025-12-14T21:31:53.039424",
        "meta_mean_motion": 14.21598081,
        "meta_eccentricity": 0.0006337,
        "meta_inclination": 98.7876,
        "meta_ra_of_asc_node": 52.4393,
        "meta_arg_of_pericenter": 36.9441,
        "meta_mean_anomaly": 323.2172,
        "meta_ephemeris_type": 0,
        "meta_classification_type": "U",
        "meta_norad_cat_id": 37387,
        "meta_element_set_no": 999,
        "meta_rev_at_epoch": 75999,
        "meta_bstar": 9.3451195e-05,
        "meta_mean_motion_dot": 1.6e-06,
        "meta_mean_motion_ddot": 0,
        "tle_line1": "1 37387U 11015A   25348.89714166  .00000160  00000+0  93451-4 0  9992",
        "tle_line2": "2 37387  98.7876  52.4393 0006337  36.9441 323.2172 14.21598081759995"
      },
      "geometry": {
        "type": "Point",
        "coordinates": [
          62.73106774194231,
          -46.94681376648535
        ]
      }
    }
  ]
}